CCSDS_OMM_VERS = 2.0
CREATION_DATE  = 
ORIGINATOR     = 

OBJECT_NAME    = SEASAT 1
OBJECT_ID      = 1978-064A
CENTER_NAME    = EARTH
REF_FRAME      = TEME
TIME_SYSTEM    = UTC
MEAN_ELEMENT_THEORY = SGP/SGP4

EPOCH          = 2026-03-26T22:15:30.025440
MEAN_MOTION    = 14.46174142
ECCENTRICITY   = .00026077
INCLINATION    = 108.0079
RA_OF_ASC_NODE = 161.6689
ARG_OF_PERICENTER = 277.3880
MEAN_ANOMALY   = 82.6969

EPHEMERIS_TYPE = 0
CLASSIFICATION_TYPE = U
NORAD_CAT_ID   = 10967
ELEMENT_SET_NO = 999
REV_AT_EPOCH   = 50900
BSTAR          = .11385327E-3
MEAN_MOTION_DOT = .27E-5
MEAN_MOTION_DDOT = 0

CCSDS_OMM_VERS = 2.0
CREATION_DATE  = 
ORIGINATOR     = 

OBJECT_NAME    = SL-14 R/B
OBJECT_ID      = 1979-011B
CENTER_NAME    = EARTH
REF_FRAME      = TEME
TIME_SYSTEM    = UTC
MEAN_ELEMENT_THEORY = SGP/SGP4

EPOCH          = 2026-03-26T22:50:06.038592
MEAN_MOTION    = 14.91929612
ECCENTRICITY   = .00161245
INCLINATION    = 82.5208
RA_OF_ASC_NODE = 80.1856
ARG_OF_PERICENTER = 5.8529
MEAN_ANOMALY   = 354.2876

EPHEMERIS_TYPE = 0
CLASSIFICATION_TYPE = U
NORAD_CAT_ID   = 11267
ELEMENT_SET_NO = 999
REV_AT_EPOCH   = 53135
BSTAR          = .68301538E-4
MEAN_MOTION_DOT = .718E-5
MEAN_MOTION_DDOT = 0

CCSDS_OMM_VERS = 2.0
CREATION_DATE  = 
ORIGINATOR     = 

OBJECT_NAME    = SL-8 R/B
OBJECT_ID      = 1979-089B
CENTER_NAME    = EARTH
REF_FRAME      = TEME
TIME_SYSTEM    = UTC
MEAN_ELEMENT_THEORY = SGP/SGP4

EPOCH          = 2026-03-26T22:43:04.698624
MEAN_MOTION    = 14.42360561
ECCENTRICITY   = .00168192
INCLINATION    = 74.0682
RA_OF_ASC_NODE = 59.0955
ARG_OF_PERICENTER = 229.6349
MEAN_ANOMALY   = 130.3340

EPHEMERIS_TYPE = 0
CLASSIFICATION_TYPE = U
NORAD_CAT_ID   = 11574
ELEMENT_SET_NO = 999
REV_AT_EPOCH   = 43859
BSTAR          = .91923758E-4
MEAN_MOTION_DOT = .278E-5
MEAN_MOTION_DDOT = 0

CCSDS_OMM_VERS = 2.0
CREATION_DATE  = 
ORIGINATOR     = 

OBJECT_NAME    = SL-14 R/B
OBJECT_ID      = 1980-005B
CENTER_NAME    = EARTH
REF_FRAME      = TEME
TIME_SYSTEM    = UTC
MEAN_ELEMENT_THEORY = SGP/SGP4

EPOCH          = 2026-03-26T23:25:13.783008
MEAN_MOTION    = 14.90949255
ECCENTRICITY   = .00172102
INCLINATION    = 82.5114
RA_OF_ASC_NODE = 290.8355
ARG_OF_PERICENTER = 104.4824
MEAN_ANOMALY   = 255.8306

EPHEMERIS_TYPE = 0
CLASSIFICATION_TYPE = U
NORAD_CAT_ID   = 11672
ELEMENT_SET_NO = 999
REV_AT_EPOCH   = 47906
BSTAR          = .54142128E-4
MEAN_MOTION_DOT = .561E-5
MEAN_MOTION_DDOT = 0

CCSDS_OMM_VERS = 2.0
CREATION_DATE  = 
ORIGINATOR     = 

OBJECT_NAME    = SL-8 R/B
OBJECT_ID      = 1981-003B
CENTER_NAME    = EARTH
REF_FRAME      = TEME
TIME_SYSTEM    = UTC
MEAN_ELEMENT_THEORY = SGP/SGP4

EPOCH          = 2026-03-26T22:48:53.815968
MEAN_MOTION    = 15.11718108
ECCENTRICITY   = .02610432
INCLINATION    = 82.9342
RA_OF_ASC_NODE = 274.0533
ARG_OF_PERICENTER = 118.5601
MEAN_ANOMALY   = 244.2174

EPHEMERIS_TYPE = 0
CLASSIFICATION_TYPE = U
NORAD_CAT_ID   = 12139
ELEMENT_SET_NO = 999
REV_AT_EPOCH   = 31728
BSTAR          = .61728072E-3
MEAN_MOTION_DOT = .24588E-3
MEAN_MOTION_DDOT = 0

CCSDS_OMM_VERS = 2.0
CREATION_DATE  = 
ORIGINATOR     = 

OBJECT_NAME    = SL-3 R/B
OBJECT_ID      = 1981-046B
CENTER_NAME    = EARTH
REF_FRAME      = TEME
TIME_SYSTEM    = UTC
MEAN_ELEMENT_THEORY = SGP/SGP4

EPOCH          = 2026-03-26T23:28:51.209472
MEAN_MOTION    = 15.42408666
ECCENTRICITY   = .00183169
INCLINATION    = 81.2287
RA_OF_ASC_NODE = 268.9732
ARG_OF_PERICENTER = 321.2296
MEAN_ANOMALY   = 38.7632

EPHEMERIS_TYPE = 0
CLASSIFICATION_TYPE = U
NORAD_CAT_ID   = 12465
ELEMENT_SET_NO = 999
REV_AT_EPOCH   = 44109
BSTAR          = .29028159E-3
MEAN_MOTION_DOT = .12651E-3
MEAN_MOTION_DDOT = 0

CCSDS_OMM_VERS = 2.0
CREATION_DATE  = 
ORIGINATOR     = 

OBJECT_NAME    = SL-3 R/B
OBJECT_ID      = 1981-103B
CENTER_NAME    = EARTH
REF_FRAME      = TEME
TIME_SYSTEM    = UTC
MEAN_ELEMENT_THEORY = SGP/SGP4

EPOCH          = 2026-03-26T20:54:53.021664
MEAN_MOTION    = 15.21575601
ECCENTRICITY   = .0012702
INCLINATION    = 81.1604
RA_OF_ASC_NODE = 193.2773
ARG_OF_PERICENTER = 225.0610
MEAN_ANOMALY   = 134.9593

EPHEMERIS_TYPE = 0
CLASSIFICATION_TYPE = U
NORAD_CAT_ID   = 12904
ELEMENT_SET_NO = 999
REV_AT_EPOCH   = 97584
BSTAR          = .22455774E-3
MEAN_MOTION_DOT = .5098E-4
MEAN_MOTION_DDOT = 0

CCSDS_OMM_VERS = 2.0
CREATION_DATE  = 
ORIGINATOR     = 

OBJECT_NAME    = SL-3 R/B
OBJECT_ID      = 1982-013B
CENTER_NAME    = EARTH
REF_FRAME      = TEME
TIME_SYSTEM    = UTC
MEAN_ELEMENT_THEORY = SGP/SGP4

EPOCH          = 2026-03-26T22:31:11.387136
MEAN_MOTION    = 15.22170006
ECCENTRICITY   = .00234385
INCLINATION    = 81.1742
RA_OF_ASC_NODE = 140.5537
ARG_OF_PERICENTER = 120.7773
MEAN_ANOMALY   = 239.5771

EPHEMERIS_TYPE = 0
CLASSIFICATION_TYPE = U
NORAD_CAT_ID   = 13068
ELEMENT_SET_NO = 999
REV_AT_EPOCH   = 40697
BSTAR          = .16277929E-3
MEAN_MOTION_DOT = .3788E-4
MEAN_MOTION_DDOT = 0

CCSDS_OMM_VERS = 2.0
CREATION_DATE  = 
ORIGINATOR     = 

OBJECT_NAME    = SL-3 R/B
OBJECT_ID      = 1982-039B
CENTER_NAME    = EARTH
REF_FRAME      = TEME
TIME_SYSTEM    = UTC
MEAN_ELEMENT_THEORY = SGP/SGP4

EPOCH          = 2026-03-26T21:13:28.059456
MEAN_MOTION    = 15.10174592
ECCENTRICITY   = .00287668
INCLINATION    = 81.1569
RA_OF_ASC_NODE = 196.1360
ARG_OF_PERICENTER = 267.7088
MEAN_ANOMALY   = 92.0844

EPHEMERIS_TYPE = 0
CLASSIFICATION_TYPE = U
NORAD_CAT_ID   = 13154
ELEMENT_SET_NO = 999
REV_AT_EPOCH   = 38423
BSTAR          = .15588053E-3
MEAN_MOTION_DOT = .2591E-4
MEAN_MOTION_DDOT = 0

CCSDS_OMM_VERS = 2.0
CREATION_DATE  = 
ORIGINATOR     = 

OBJECT_NAME    = SL-3 R/B
OBJECT_ID      = 1982-079B
CENTER_NAME    = EARTH
REF_FRAME      = TEME
TIME_SYSTEM    = UTC
MEAN_ELEMENT_THEORY = SGP/SGP4

EPOCH          = 2026-03-26T22:11:05.532576
MEAN_MOTION    = 15.25027022
ECCENTRICITY   = .00255437
INCLINATION    = 81.1482
RA_OF_ASC_NODE = 172.7280
ARG_OF_PERICENTER = 108.0506
MEAN_ANOMALY   = 252.3514

EPHEMERIS_TYPE = 0
CLASSIFICATION_TYPE = U
NORAD_CAT_ID   = 13403
ELEMENT_SET_NO = 999
REV_AT_EPOCH   = 38032
BSTAR          = .24006626E-3
MEAN_MOTION_DOT = .6076E-4
MEAN_MOTION_DDOT = 0

CCSDS_OMM_VERS = 2.0
CREATION_DATE  = 
ORIGINATOR     = 

OBJECT_NAME    = SL-14 R/B
OBJECT_ID      = 1982-092B
CENTER_NAME    = EARTH
REF_FRAME      = TEME
TIME_SYSTEM    = UTC
MEAN_ELEMENT_THEORY = SGP/SGP4

EPOCH          = 2026-03-26T13:20:33.976320
MEAN_MOTION    = 14.86681056
ECCENTRICITY   = .00189268
INCLINATION    = 82.5662
RA_OF_ASC_NODE = 125.6218
ARG_OF_PERICENTER = 243.1861
MEAN_ANOMALY   = 277.5297

EPHEMERIS_TYPE = 0
CLASSIFICATION_TYPE = U
NORAD_CAT_ID   = 13553
ELEMENT_SET_NO = 999
REV_AT_EPOCH   = 33143
BSTAR          = .426067E-4
MEAN_MOTION_DOT = .404E-5
MEAN_MOTION_DDOT = 0

CCSDS_OMM_VERS = 2.0
CREATION_DATE  = 
ORIGINATOR     = 

OBJECT_NAME    = SL-3 R/B
OBJECT_ID      = 1983-010B
CENTER_NAME    = EARTH
REF_FRAME      = TEME
TIME_SYSTEM    = UTC
MEAN_ELEMENT_THEORY = SGP/SGP4

EPOCH          = 2026-03-26T10:51:50.750208
MEAN_MOTION    = 15.46914021
ECCENTRICITY   = .00162513
INCLINATION    = 81.1052
RA_OF_ASC_NODE = 341.6892
ARG_OF_PERICENTER = 354.4772
MEAN_ANOMALY   = 5.6290

EPHEMERIS_TYPE = 0
CLASSIFICATION_TYPE = U
NORAD_CAT_ID   = 13819
ELEMENT_SET_NO = 999
REV_AT_EPOCH   = 36053
BSTAR          = .29157971E-3
MEAN_MOTION_DOT = .14787E-3
MEAN_MOTION_DDOT = 0

CCSDS_OMM_VERS = 2.0
CREATION_DATE  = 
ORIGINATOR     = 

OBJECT_NAME    = SL-3 R/B
OBJECT_ID      = 1983-075B
CENTER_NAME    = EARTH
REF_FRAME      = TEME
TIME_SYSTEM    = UTC
MEAN_ELEMENT_THEORY = SGP/SGP4

EPOCH          = 2026-03-26T23:40:36.631776
MEAN_MOTION    = 15.38815929
ECCENTRICITY   = .00220518
INCLINATION    = 97.6145
RA_OF_ASC_NODE = 91.2244
ARG_OF_PERICENTER = 162.8201
MEAN_ANOMALY   = 197.3795

EPHEMERIS_TYPE = 0
CLASSIFICATION_TYPE = U
NORAD_CAT_ID   = 14208
ELEMENT_SET_NO = 999
REV_AT_EPOCH   = 33281
BSTAR          = .30182345E-3
MEAN_MOTION_DOT = .11596E-3
MEAN_MOTION_DDOT = 0

CCSDS_OMM_VERS = 2.0
CREATION_DATE  = 
ORIGINATOR     = 

OBJECT_NAME    = COSMOS 1536
OBJECT_ID      = 1984-013A
CENTER_NAME    = EARTH
REF_FRAME      = TEME
TIME_SYSTEM    = UTC
MEAN_ELEMENT_THEORY = SGP/SGP4

EPOCH          = 2026-03-26T23:44:00.224736
MEAN_MOTION    = 15.24053017
ECCENTRICITY   = .00131326
INCLINATION    = 82.5418
RA_OF_ASC_NODE = 90.6466
ARG_OF_PERICENTER = 215.1533
MEAN_ANOMALY   = 144.8839

EPHEMERIS_TYPE = 0
CLASSIFICATION_TYPE = U
NORAD_CAT_ID   = 14699
ELEMENT_SET_NO = 999
REV_AT_EPOCH   = 27525
BSTAR          = .27353093E-3
MEAN_MOTION_DOT = .6681E-4
MEAN_MOTION_DDOT = 0

CCSDS_OMM_VERS = 2.0
CREATION_DATE  = 
ORIGINATOR     = 

OBJECT_NAME    = SL-14 R/B
OBJECT_ID      = 1984-027B
CENTER_NAME    = EARTH
REF_FRAME      = TEME
TIME_SYSTEM    = UTC
MEAN_ELEMENT_THEORY = SGP/SGP4

EPOCH          = 2026-03-26T20:44:17.023488
MEAN_MOTION    = 14.85993908
ECCENTRICITY   = .00164852
INCLINATION    = 82.5412
RA_OF_ASC_NODE = 228.9032
ARG_OF_PERICENTER = 277.2055
MEAN_ANOMALY   = 82.7287

EPHEMERIS_TYPE = 0
CLASSIFICATION_TYPE = U
NORAD_CAT_ID   = 14820
ELEMENT_SET_NO = 999
REV_AT_EPOCH   = 25018
BSTAR          = .6154624E-4
MEAN_MOTION_DOT = .563E-5
MEAN_MOTION_DDOT = 0

